{
  "type": "FeatureCollection",
  "features": [
    {
      "type": "Feature",
      "properties": {
        "norad_id": 41866,
        "name": "GOES 16",
        "group": "weather",
        "lat": 0.027850851646266227,
        "lon": -129.17292452677026,
        "alt_km": 35774.74727616106,
        "timestamp": "2025-12-14T16:47:40.326067+00:00",
        "meta_object_name": "GOES 16",
        "meta_object_id": "2016-071A",
        "meta_epoch": "2025-12-13T21:30:44.234784",
        "meta_mean_motion": 1.00271652,
        "meta_eccentricity": 0.00031843,
        "meta_inclination": 0.066,
        "meta_ra_of_asc_node": 104.5641,
        "meta_arg_of_pericenter": 158.8092,
        "meta_mean_anomaly": 37.4578,
        "meta_ephemeris_type": 0,
        "meta_classification_type": "U",
        "meta_norad_cat_id": 41866,
        "meta_element_set_no": 999,
        "meta_rev_at_epoch": 3324,
        "meta_bstar": 0,
        "meta_mean_motion_dot": -7.5e-07,
        "meta_mean_motion_ddot": 0,
        "tle_line1": "1 41866U 16071A   25347.89634531 -.00000075  00000+0  00000+0 0  9991",
        "tle_line2": "2 41866   0.0660 104.5641 0003184 158.8092  37.4578  1.00271652 33249"
      },
      "geometry": {
        "type": "Point",
        "coordinates": [
          -129.17292452677026,
          0.027850851646266227
        ]
      }
    },
    {
      "type": "Feature",
      "properties": {
        "norad_id": 41882,
        "name": "FENGYUN 4A",
        "group": "weather",
        "lat": 0.5582611698509368,
        "lon": 99.2874171205386,
        "alt_km": 35799.49823433474,
        "timestamp": "2025-12-14T16:47:40.326080+00:00",
        "meta_object_name": "FENGYUN 4A",
        "meta_object_id": "2016-077A",
        "meta_epoch": "2025-12-13T22:35:52.994976",
        "meta_mean_motion": 1.00269201,
        "meta_eccentricity": 0.00047489,
        "meta_inclination": 1.8525,
        "meta_ra_of_asc_node": 82.3803,
        "meta_arg_of_pericenter": 145.768,
        "meta_mean_anomaly": 317.5109,
        "meta_ephemeris_type": 0,
        "meta_classification_type": "U",
        "meta_norad_cat_id": 41882,
        "meta_element_set_no": 999,
        "meta_rev_at_epoch": 3307,
        "meta_bstar": 0,
        "meta_mean_motion_dot": -3.41e-06,
        "meta_mean_motion_ddot": 0,
        "tle_line1": "1 41882U 16077A   25347.94158559 -.00000341  00000+0  00000+0 0  9998",
        "tle_line2": "2 41882   1.8525  82.3803 0004748 145.7680 317.5109  1.00269201 33074"
      },
      "geometry": {
        "type": "Point",
        "coordinates": [
          99.2874171205386,
          0.5582611698509368
        ]
      }
    },
    {
      "type": "Feature",
      "properties": {
        "norad_id": 41884,
        "name": "CYGFM05",
        "group": "weather",
        "lat": 20.993708882016826,
        "lon": -178.98753714852828,
        "alt_km": 415.73205083362427,
        "timestamp": "2025-12-14T16:47:40.326091+00:00",
        "meta_object_name": "CYGFM05",
        "meta_object_id": "2016-078A",
        "meta_epoch": "2025-12-13T20:03:43.437024",
        "meta_mean_motion": 15.47688471,
        "meta_eccentricity": 0.00102483,
        "meta_inclination": 34.9605,
        "meta_ra_of_asc_node": 39.97,
        "meta_arg_of_pericenter": 193.4115,
        "meta_mean_anomaly": 166.6335,
        "meta_ephemeris_type": 0,
        "meta_classification_type": "U",
        "meta_norad_cat_id": 41884,
        "meta_element_set_no": 999,
        "meta_rev_at_epoch": 49993,
        "meta_bstar": 0.00038872686,
        "meta_mean_motion_dot": 0.00020765,
        "meta_mean_motion_ddot": 0,
        "tle_line1": "1 41884U 16078A   25347.83591941  .00020765  00000+0  38873-3 0  9999",
        "tle_line2": "2 41884  34.9605  39.9700 0010248 193.4115 166.6335 15.47688471499936"
      },
      "geometry": {
        "type": "Point",
        "coordinates": [
          -178.98753714852828,
          20.993708882016826
        ]
      }
    },
    {
      "type": "Feature",
      "properties": {
        "norad_id": 41885,
        "name": "CYGFM04",
        "group": "weather",
        "lat": 21.60376747250056,
        "lon": 43.609985100357726,
        "alt_km": 417.3962848452775,
        "timestamp": "2025-12-14T16:47:40.326102+00:00",
        "meta_object_name": "CYGFM04",
        "meta_object_id": "2016-078B",
        "meta_epoch": "2025-12-13T11:15:40.578624",
        "meta_mean_motion": 15.50402135,
        "meta_eccentricity": 0.00095501,
        "meta_inclination": 34.9357,
        "meta_ra_of_asc_node": 17.1215,
        "meta_arg_of_pericenter": 217.126,
        "meta_mean_anomaly": 142.8802,
        "meta_ephemeris_type": 0,
        "meta_classification_type": "U",
        "meta_norad_cat_id": 41885,
        "meta_element_set_no": 999,
        "meta_rev_at_epoch": 50005,
        "meta_bstar": 0.00056841232,
        "meta_mean_motion_dot": 0.00033488,
        "meta_mean_motion_ddot": 0,
        "tle_line1": "1 41885U 16078B   25347.46921966  .00033488  00000+0  56841-3 0  9994",
        "tle_line2": "2 41885  34.9357  17.1215 0009550 217.1260 142.8802 15.50402135500055"
      },
      "geometry": {
        "type": "Point",
        "coordinates": [
          43.609985100357726,
          21.60376747250056
        ]
      }
    },
    {
      "type": "Feature",
      "properties": {
        "norad_id": 41886,
        "name": "CYGFM02",
        "group": "weather",
        "lat": 30.597340260062488,
        "lon": 65.21949424941234,
        "alt_km": 412.9891963987411,
        "timestamp": "2025-12-14T16:47:40.326135+00:00",
        "meta_object_name": "CYGFM02",
        "meta_object_id": "2016-078C",
        "meta_epoch": "2025-12-13T18:54:34.735392",
        "meta_mean_motion": 15.51795554,
        "meta_eccentricity": 0.00112912,
        "meta_inclination": 34.9446,
        "meta_ra_of_asc_node": 13.3427,
        "meta_arg_of_pericenter": 219.3657,
        "meta_mean_anomaly": 140.6246,
        "meta_ephemeris_type": 0,
        "meta_classification_type": "U",
        "meta_norad_cat_id": 41886,
        "meta_element_set_no": 999,
        "meta_rev_at_epoch": 50023,
        "meta_bstar": 0.00041124535,
        "meta_mean_motion_dot": 0.00025449,
        "meta_mean_motion_ddot": 0,
        "tle_line1": "1 41886U 16078C   25347.78790203  .00025449  00000+0  41125-3 0  9995",
        "tle_line2": "2 41886  34.9446  13.3427 0011291 219.3657 140.6246 15.51795554500236"
      },
      "geometry": {
        "type": "Point",
        "coordinates": [
          65.21949424941234,
          30.597340260062488
        ]
      }
    },
    {
      "type": "Feature",
      "properties": {
        "norad_id": 41887,
        "name": "CYGFM01",
        "group": "weather",
        "lat": -5.549085391374545,
        "lon": -135.33873882492202,
        "alt_km": 414.6592089496153,
        "timestamp": "2025-12-14T16:47:40.326147+00:00",
        "meta_object_name": "CYGFM01",
        "meta_object_id": "2016-078D",
        "meta_epoch": "2025-12-13T13:40:19.792992",
        "meta_mean_motion": 15.48257006,
        "meta_eccentricity": 0.0009752,
        "meta_inclination": 34.9435,
        "meta_ra_of_asc_node": 44.0536,
        "meta_arg_of_pericenter": 183.0783,
        "meta_mean_anomaly": 176.988,
        "meta_ephemeris_type": 0,
        "meta_classification_type": "U",
        "meta_norad_cat_id": 41887,
        "meta_element_set_no": 999,
        "meta_rev_at_epoch": 49983,
        "meta_bstar": 0.00040822074,
        "meta_mean_motion_dot": 0.00022248,
        "meta_mean_motion_ddot": 0,
        "tle_line1": "1 41887U 16078D   25347.56967353  .00022248  00000+0  40822-3 0  9991",
        "tle_line2": "2 41887  34.9435  44.0536 0009752 183.0783 176.9880 15.48257006499833"
      },
      "geometry": {
        "type": "Point",
        "coordinates": [
          -135.33873882492202,
          -5.549085391374545
        ]
      }
    },
    {
      "type": "Feature",
      "properties": {
        "norad_id": 41888,
        "name": "CYGFM08",
        "group": "weather",
        "lat": -31.728937164747784,
        "lon": -98.06589398938365,
        "alt_km": 413.12558607155734,
        "timestamp": "2025-12-14T16:47:40.326157+00:00",
        "meta_object_name": "CYGFM08",
        "meta_object_id": "2016-078E",
        "meta_epoch": "2025-12-13T19:38:01.316256",
        "meta_mean_motion": 15.49476293,
        "meta_eccentricity": 0.00117583,
        "meta_inclination": 34.9469,
        "meta_ra_of_asc_node": 25.4078,
        "meta_arg_of_pericenter": 208.6682,
        "meta_mean_anomaly": 151.3395,
        "meta_ephemeris_type": 0,
        "meta_classification_type": "U",
        "meta_norad_cat_id": 41888,
        "meta_element_set_no": 999,
        "meta_rev_at_epoch": 50010,
        "meta_bstar": 0.00042352292,
        "meta_mean_motion_dot": 0.00024126,
        "meta_mean_motion_ddot": 0,
        "tle_line1": "1 41888U 16078E   25347.81807079  .00024126  00000+0  42352-3 0  9995",
        "tle_line2": "2 41888  34.9469  25.4078 0011758 208.6682 151.3395 15.49476293500109"
      },
      "geometry": {
        "type": "Point",
        "coordinates": [
          -98.06589398938365,
          -31.728937164747784
        ]
      }
    }
  ]
}